# From NK 1615
P/1996 R2 (Lagerkvist),e,2.5991,40.0480,333.4818,3.772826,0.1344943,0.31431435,298.7189,03/17.0/2025,2000,g 11.5,4.0
# From MPC 75703
P/1998 VS24 (LINEAR),e,5.0290,159.0434,244.8675,4.520909,0.1025334,0.24362412,267.2369,03/17.0/2025,2000,g 13.0,2.0
# From NK 731
P/1999 RO28 (LONEOS),e,7.5669,137.8431,231.3524,3.425299,0.1554735,0.67220400,324.6612,03/17.0/2025,2000,g 20.0,2.0
# From MPC 75704
P/1999 XN120 (Catalina),e,5.0296,285.2451,161.6346,4.181628,0.1152620,0.21136844,327.7403,03/17.0/2025,2000,g 13.5,2.0
# From NK 744
P/2000 R2 (LINEAR),e,11.6788,160.2736,176.5841,3.468852,0.1525546,0.53064961,320.2899,03/17.0/2025,2000,g 18.0,4.0
# From MPC 43019
P/2001 H5 (NEAT),e,8.3717,328.6704,224.5905,6.094757,0.0655042,0.59902711,225.9734,03/17.0/2025,2000,g 12.0,4.0
# From MPEC 2023-UR6
P/2002 EJ57 (LINEAR),e,4.9881,330.2319,167.2721,6.455559,0.0600902,0.59381914,147.9491,03/17.0/2025,2000,g 12.5,4.0
# From MPC 75007
C/2002 VQ94 (LINEAR),e,70.6695,35.1134,99.8053,186.4554,0.0003871,0.96376185,2.7000,03/17.0/2025,2000,g  9.5,2.0
# From MPC 50354
P/2003 F2 (NEAT),e,11.6677,358.9022,192.7937,6.528202,0.0590900,0.54030295,115.1499,03/17.0/2025,2000,g 16.5,2.0
# From MPEC 2025-CE3
P/2003 QX29 (NEAT),e,11.3998,264.4846,37.7520,7.999395,0.0435631,0.47127404,353.8160,03/17.0/2025,2000,g  8.5,4.0
# From MPC105235
P/2003 T12 (SOHO),e,11.0241,174.5771,219.7903,2.584082,0.2372709,0.77020806,60.8022,03/17.0/2025,2000,g 17.0,4.0
# From MPEC 2022-YN2
P/2004 FY140 (LINEAR),e,2.1626,327.2625,254.1929,4.969541,0.0889671,0.19266277,297.1190,03/17.0/2025,2000,g 12.5,2.0
# From MPC 53304
P/2004 R3 (LINEAR-NEAT),e,12.7993,305.1198,37.2967,4.749072,0.0952338,0.25436949,121.6976,03/17.0/2025,2000,g 14.5,4.0
# From MPC 75705
P/2004 V5 (LINEAR-Hill),e,19.3405,47.7421,87.2268,8.036933,0.0432582,0.44835525,322.2514,03/17.0/2025,2000,g  8.0,4.0
# From MPC 75705
P/2004 V5-B (LINEAR-Hill),e,19.3406,47.7424,87.2308,8.037226,0.0432558,0.44837433,322.2115,03/17.0/2025,2000,g  8.0,4.0
# From MPC 54164
P/2005 E1 (Tubbiolo),e,4.2607,335.5024,193.9065,7.068615,0.0524448,0.37716958,28.1105,03/17.0/2025,2000,g 10.0,4.0
# From MPC 79019
P/2005 J1 (McNaught),e,31.7405,268.7998,338.9145,3.574606,0.1458350,0.56930774,342.9803,03/17.0/2025,2000,g 16.5,4.0
# From MPC 74246
P/2005 L1 (McNaught),e,8.2471,129.3493,158.2769,3.949846,0.1255549,0.24490746,149.7355,03/17.0/2025,2000,g  9.5,4.0
# From MPC 75706
P/2005 S2 (Skiff),e,3.1382,161.3369,229.9712,7.985621,0.0436758,0.19858497,298.3961,03/17.0/2025,2000,g  7.5,4.0
# From MPC 73461
P/2005 T3 (Read),e,6.2313,27.6258,7.0464,7.576727,0.0472587,0.17460423,335.4182,03/17.0/2025,2000,g  9.0,4.0
# From MPC 73461
P/2005 T4 (SWAN),e,160.2585,25.8539,41.8180,9.352062,0.0344622,0.93060925,244.2311,03/17.0/2025,2000,g 15.0,4.0
# From MPC 75706
P/2005 T5 (Broughton),e,21.3833,57.0636,304.7758,7.259655,0.0503883,0.55183229,355.4687,03/17.0/2025,2000,g 11.0,4.0
# From MPC 75707
P/2006 HR30 (Siding Spring),e,31.9519,309.7645,117.5037,7.797758,0.0452636,0.84364235,301.0591,03/17.0/2025,2000,g 11.0,4.0
# From MPC 75707
P/2007 C2 (Catalina),e,8.6128,275.2363,180.1368,7.020009,0.0529905,0.47400987,340.4273,03/17.0/2025,2000,g 10.0,4.0
# From MPC 84315
C/2007 D1 (LINEAR),e,41.5118,171.0607,339.7316,1212,0.0000234,0.99278774,0.0000,06/13.3531/2007,2000,g  3.5,4.0
# From MPEC 2024-GJ3
P/2007 K2 (Gibbs),e,7.5992,188.4678,347.1136,7.364161,0.0493196,0.68622949,326.4304,03/17.0/2025,2000,g 14.0,4.0
# From MPC 60925
P/2007 Q2 (Gilmore),e,10.1943,172.2230,162.8579,5.661260,0.0731702,0.66885962,115.0737,03/17.0/2025,2000,g 16.0,4.0
# From MPC 73462
P/2007 S1 (Zhao),e,5.9633,141.3283,245.2704,3.818330,0.1320973,0.33803398,117.8915,03/17.0/2025,2000,g 13.0,4.0
# From MPEC 2024-GJ3
C/2007 S2 (Lemmon),e,16.9141,296.1283,210.1455,12.49536,0.0223142,0.55678622,134.7659,03/17.0/2025,2000,g  6.5,4.0
# From MPC 61994
P/2007 T2 (Kowalski),e,9.7487,3.3918,359.6698,3.043618,0.1856175,0.78549223,90.1102,03/17.0/2025,2000,g 18.5,4.0
# From MPEC 2024-GJ3
C/2008 E1 (Catalina),e,34.8648,188.9383,270.3379,10.76385,0.0279096,0.55285724,168.8986,03/17.0/2025,2000,g  7.0,4.0
# From MPC 64114
P/2008 O3 (Boattini),e,32.3159,47.6080,341.2026,8.208660,0.0419079,0.69626400,256.3926,03/17.0/2025,2000,g 13.0,4.0
# From MPC 75710
P/2008 Y3 (McNaught),e,38.7789,262.8431,238.1085,8.038471,0.0432458,0.44804174,256.4501,03/17.0/2025,2000,g  8.5,4.0
# From MPC 75710
P/2009 B1 (Boattini),e,22.2596,297.1087,128.9947,6.726644,0.0564945,0.63598861,333.4248,03/17.0/2025,2000,g 13.0,4.0
# From MPC 66466
C/2009 G1 (STEREO),e,108.0616,120.8602,175.5172,456.5571,0.0001010,0.99750980,0.0000,04/17.6221/2009,2000,g  9.0,4.0
# From MPC 75710
P/2009 O3 (Hill),e,16.2558,183.7168,154.4340,7.771327,0.0454948,0.68627381,262.6082,03/17.0/2025,2000,g 12.5,4.0
# From MPC 68902
P/2009 Q5 (McNaught),e,40.9569,160.2155,209.2048,7.425553,0.0487092,0.60941373,275.3890,03/17.0/2025,2000,g 10.0,4.0
# From MPC112389
P/2009 T2 (La Sagra),e,27.6029,216.3242,215.9895,7.708707,0.0460502,0.76749273,255.1402,03/17.0/2025,2000,g 14.0,4.0
# From MPC105235
P/2009 WX51 (Catalina),e,9.5974,31.5241,118.2907,3.082391,0.1821262,0.73964967,288.2269,03/17.0/2025,2000,g 19.0,2.0
# From MPC 74247
P/2009 Y2 (Kowalski),e,29.9737,262.0855,172.2301,6.539232,0.0589405,0.63742371,323.1792,03/17.0/2025,2000,g 13.0,4.0
# From MPC 75008
P/2010 C1 (Scotti),e,9.1157,141.5962,2.9382,7.127523,0.0517960,0.26363834,293.4224,03/17.0/2025,2000,g  9.5,4.0
# From MPC 75008
P/2010 D2 (WISE),e,57.1339,319.8756,119.9995,6.717882,0.0566051,0.45173880,312.2038,03/17.0/2025,2000,g 16.0,4.0
# From MPC 75009
P/2010 E2 (Jarnac),e,15.4213,177.8212,8.2167,8.635961,0.0388363,0.72069979,212.7944,03/17.0/2025,2000,g 14.0,4.0
# From MPC 72851
P/2010 H2 (Vales),e,14.2794,64.1879,128.0442,3.833738,0.1313017,0.19766050,0.9689,03/17.0/2025,2000,g  6.0,4.0
# From MPC 70361
P/2010 H3 (SOHO),e,23.1524,77.1888,26.0644,3.035425,0.1863695,0.98557206,0.0000,05/25.2205/2026,2000,g 20.0,2.0
# From MPEC 2024-GJ3
P/2010 H4 (Scotti),e,2.3178,44.7449,179.0810,6.617198,0.0579019,0.26697037,313.9281,03/17.0/2025,2000,g 10.5,4.0
# From MPC 74637
P/2010 H5 (Scotti),e,14.0538,24.5452,174.7552,7.173516,0.0512987,0.15482161,281.7168,03/17.0/2025,2000,g 13.0,2.0
# From MPC 98558
P/2010 J3 (McMillan),e,13.2273,106.5383,157.4297,8.987832,0.0365781,0.72416535,195.0992,03/17.0/2025,2000,g 11.0,4.0
# From MPC 84315
P/2010 JC81 (WISE),e,38.7787,30.8574,12.4995,8.102658,0.0427329,0.77815613,216.4290,03/17.0/2025,2000,g  9.0,4.0
# From MPEC 2024-H77
A/2010 LN135,e,64.4935,184.8335,181.5717,40117,0.0000001,0.99995648,0.0000,05/25.4021/2011,2000,g 14.0,2.0
# From MPC 74248
P/2010 T2 (PANSTARRS),e,7.8646,57.8617,350.3929,5.599941,0.0743753,0.32659192,28.6903,03/17.0/2025,2000,g 11.5,4.0
# From MPC 82316
P/2010 U1 (Boattini),e,8.2275,280.8077,86.5301,6.487096,0.0596525,0.24847924,327.6802,03/17.0/2025,2000,g  9.5,4.0
# From MPEC 2023-J95
C/2010 U3 (Boattini),e,55.5521,42.9912,88.0751,15696,0.0000005,0.99946236,0.0000,02/27.7628/2019,2000,g  1.0,4.0
# From MPC 79021
P/2010 UH55 (Spacewatch),e,8.0367,232.8400,225.2898,6.648851,0.0574889,0.56470087,292.5510,03/17.0/2025,2000,g 11.0,4.0
# From MPC 84021
P/2011 C2 (Gibbs),e,10.8940,11.9587,160.2741,7.409814,0.0488645,0.27091402,237.0677,03/17.0/2025,2000,g  9.0,4.0
# From MPC 79866
P/2011 FR143 (Lemmon),e,15.9634,190.8515,349.6669,6.880551,0.0546096,0.45241245,282.5809,03/17.0/2025,2000,g 14.0,2.0
# From MPC 82317
P/2011 JB15 (Spacewatch-Boattini),e,19.1257,153.5859,110.7288,7.379752,0.0491633,0.31465371,237.4657,03/17.0/2025,2000,g  9.0,4.0
# From MPC 87913
P/2011 N1 (ASH),e,35.7871,77.6294,330.4861,6.234537,0.0633137,0.54550242,295.4922,03/17.0/2025,2000,g 11.5,4.0
# From MPEC 2022-ED3
P/2011 P1 (McNaught),e,5.6525,4.2637,349.1885,7.460725,0.0483652,0.32649731,258.1680,03/17.0/2025,2000,g  9.0,4.0
# From MPEC 2022-HC2
P/2011 S1 (Gibbs),e,2.6887,218.8967,192.9146,8.594690,0.0391164,0.20116980,150.8908,03/17.0/2025,2000,g  8.0,4.0
# From MPEC 2023-UR6
P/2011 V1 (Boattini),e,7.3832,46.4904,269.6190,3.857082,0.1301115,0.54836909,307.6227,03/17.0/2025,2000,g 15.5,4.0
# From MPC 82718
P/2011 W1 (PANSTARRS),e,3.7162,161.8116,283.0061,4.673822,0.0975430,0.28853039,110.3823,03/17.0/2025,2000,g 11.5,4.0
# From MPC 79342
P/2011 Y2 (Boattini),e,6.3914,309.3206,132.0637,6.229414,0.0633918,0.71121049,301.0986,03/17.0/2025,2000,g 15.0,4.0
# From MPEC 2022-K19
P/2012 B1 (PANSTARRS),e,7.6059,36.2110,161.9460,6.540972,0.0589170,0.41002074,252.8787,03/17.0/2025,2000,g  9.0,4.0
# From MPC 78590
P/2012 C3 (PANSTARRS),e,9.0920,135.3677,344.9542,9.748681,0.0323806,0.63011148,359.9758,10/06.0/2011,2000,g 13.0,4.0
# From MPC 84931
P/2012 F2 (PANSTARRS),e,14.6985,226.9580,33.1643,6.346830,0.0616409,0.54036818,269.7776,03/17.0/2025,2000,g 12.0,4.0
# From MPEC 2022-ED3
P/2012 G1 (PANSTARRS),e,12.1680,283.2413,266.0195,4.162788,0.1160453,0.32943629,189.1517,03/17.0/2025,2000,g 15.0,4.0
# From MPC 80898
P/2012 K3 (Gibbs),e,13.1817,125.8067,172.1498,3.632256,0.1423769,0.42166898,290.8126,03/17.0/2025,2000,g 15.0,4.0
# From MPC 88326
P/2012 NJ (La Sagra),e,84.3380,315.6886,338.3911,8.467603,0.0400003,0.84646692,186.3942,03/17.0/2025,2000,g 14.5,4.0
# From MPC 81470
P/2012 O1 (McNaught),e,7.4280,91.9401,238.2839,3.543094,0.1477849,0.59356723,326.1399,03/17.0/2025,2000,g 17.5,4.0
# From MPC 80899
P/2012 O2 (McNaught),e,24.4557,120.6624,183.4183,3.629671,0.1425290,0.53121516,305.7627,03/17.0/2025,2000,g 17.0,4.0
# From MPC 82320
P/2012 T2 (PANSTARRS),e,12.5702,73.8789,311.1625,5.717974,0.0720843,0.16217077,311.3519,03/17.0/2025,2000,g 10.0,4.0
# From MPC 80900
P/2012 T3 (PANSTARRS),e,9.5539,114.3271,195.4775,6.157577,0.0645044,0.61560501,303.4966,03/17.0/2025,2000,g 15.0,4.0
# From MPC 82720
P/2012 U2 (PANSTARRS),e,10.7588,185.2821,228.4296,7.125858,0.0518141,0.50055302,232.8257,03/17.0/2025,2000,g 12.5,4.0
# From MPC 82721
P/2013 AL76 (Catalina),e,144.9105,146.0851,27.1054,6.500840,0.0594634,0.68554251,267.0004,03/17.0/2025,2000,g 16.0,4.0
# From MPC 91612
